YAOGAN-43 01G           
1 60464U 24148G   26068.44348481  .00010133  00000+0  35873-3 0  9993
2 60464  35.0006  62.0013 0007382 306.3543  53.6492 15.28332833 87004
STARLINK-35197          
1 66193U 25243S   26068.80817791  .00024424  00000+0  83387-3 0  9991
2 66193  53.1598 244.5767 0000871  96.5902 263.5198 15.30206354 20678
